[{"OBJECT_NAME":"STARLINK-5133","OBJECT_ID":"2022-125S","EPOCH":"2026-03-09T16:08:11.095296","MEAN_MOTION":15.08828557,"ECCENTRICITY":0.00013247,"INCLINATION":53.2172,"RA_OF_ASC_NODE":218.9242,"ARG_OF_PERICENTER":73.7409,"MEAN_ANOMALY":286.3729,"EPHEMERIS_TYPE":0,"CLASSIFICATION_TYPE":"U","NORAD_CAT_ID":53980,"ELEMENT_SET_NO":999,"REV_AT_EPOCH":18939,"BSTAR":-2.1459757e-5,"MEAN_MOTION_DOT":-6.29e-6,"MEAN_MOTION_DDOT":0},{"OBJECT_NAME":"PSLV DEB","OBJECT_ID":"2001-049PR","EPOCH":"2026-03-09T15:06:31.993344","MEAN_MOTION":15.1271322,"ECCENTRICITY":0.0041907,"INCLINATION":98.4927,"RA_OF_ASC_NODE":1.3381,"ARG_OF_PERICENTER":112.6989,"MEAN_ANOMALY":247.8677,"EPHEMERIS_TYPE":0,"CLASSIFICATION_TYPE":"U","NORAD_CAT_ID":34221,"ELEMENT_SET_NO":999,"REV_AT_EPOCH":29932,"BSTAR":0.00024868,"MEAN_MOTION_DOT":4.366e-5,"MEAN_MOTION_DDOT":0}]
